IRIDIUM 159             
1 43578U 18061K   25325.01697352  .00000110  00000+0  32039-4 0  9995
2 43578  86.3964 143.7427 0002174  87.1116 273.0328 14.34217807383546
IRIDIUM 180             
1 43922U 19002A   25324.87694110  .00000332  00000+0  11137-3 0  9997
2 43922  86.3959  80.6804 0002058  90.1314 270.0118 14.34216169359138
IRIDIUM 176             
1 43923U 19002B   25324.36222542  .00001259  00000+0  19566-3 0  9991
2 43923  86.6081  80.8694 0001829  94.9850 265.1576 14.72258161368525
IRIDIUM 168             
1 43924U 19002C   25324.87059677  .00000342  00000+0  11497-3 0  9992
2 43924  86.3962  80.7545 0002011  92.1334 268.0092 14.34216638359117
IRIDIUM 173             
1 43925U 19002D   25324.78814446  .00000341  00000+0  11473-3 0  9999
2 43925  86.3957  80.6863 0001899  92.5415 267.5998 14.34215623359089
IRIDIUM 169             
1 43926U 19002E   25324.93270780  .00000498  00000+0  15628-3 0  9993
2 43926  86.4204 112.2764 0000837  82.9259 277.2035 14.38607722360281
IRIDIUM 172             
1 43927U 19002F   25324.57249652  .00000341  00000+0  11473-3 0  9999
2 43927  86.3958  80.7837 0002108  88.8680 271.2757 14.34216053359061
IRIDIUM 175             
1 43928U 19002G   25325.17305427  .00000551  00000+0  83388-4 0  9998
2 43928  86.1525  24.1537 0002696 110.2142 249.9364 14.72235598368630
